start=new Date('2023-01-17T00:00:00.000Z').valueOf();
sats=[{"TLE_LINE1":"1 54772U 22175Q   23016.64528559 -.00001903  00000-0 -91505-5 0  9998","MEAN_MOTION_DOT":"-0.00001903","ELEMENT_SET_NO":"999","TIME_SYSTEM":"UTC","OBJECT_TYPE":"PAYLOAD","DECAY_DATE":null,"BSTAR":"-0.00000915050000","CLASSIFICATION_TYPE":"U","ECCENTRICITY":"0.00009930","REV_AT_EPOCH":"659","PERIAPSIS":"349.110","OBJECT_ID":"2022-175Q","OBJECT_NAME":"STARLINK-5452","MEAN_ANOMALY":"288.8144","EPOCH":"2023-01-16T15:29:12.674976","SITE":"AFETR","RCS_SIZE":"LARGE","MEAN_MOTION":"15.73193842","NORAD_CAT_ID":"54772","CENTER_NAME":"EARTH","REF_FRAME":"TEME","EPHEMERIS_TYPE":"0","RA_OF_ASC_NODE":"158.5129","MEAN_ELEMENT_THEORY":"SGP4","PERIOD":"91.534","TLE_LINE2":"2 54772  53.2155 158.5129 0000993  71.2984 288.8144 15.73193842  6599","INCLINATION":"53.2155","MEAN_MOTION_DDOT":"0.0000000000000","ARG_OF_PERICENTER":"71.2984","COUNTRY_CODE":"US","GP_ID":"223254360","FILE":"3750956","LAUNCH_DATE":"2022-12-17","APOAPSIS":"350.446","SEMIMAJOR_AXIS":"6727.913"},{"RA_OF_ASC_NODE":"159.2748","MEAN_ELEMENT_THEORY":"SGP4","PERIOD":"92.892","TLE_LINE2":"2 54773  53.2145 159.2748 0000934  84.3105 143.1088 15.50188383  1302","MEAN_MOTION_DDOT":"0.0000000000000","INCLINATION":"53.2145","ARG_OF_PERICENTER":"84.3105","COUNTRY_CODE":"US","GP_ID":"223255566","FILE":"3750956","LAUNCH_DATE":"2022-12-17","APOAPSIS":"416.812","SEMIMAJOR_AXIS":"6794.313","SITE":"AFETR","RCS_SIZE":"LARGE","MEAN_MOTION":"15.50188383","NORAD_CAT_ID":"54773","CENTER_NAME":"EARTH","REF_FRAME":"TEME","EPHEMERIS_TYPE":"0","CLASSIFICATION_TYPE":"U","ECCENTRICITY":"0.00009340","REV_AT_EPOCH":"130","PERIAPSIS":"415.543","OBJECT_ID":"2022-175R","OBJECT_NAME":"STARLINK-5453","EPOCH":"2023-01-16T20:00:01.000224","MEAN_ANOMALY":"143.1088","MEAN_MOTION_DOT":"-0.00969827","TLE_LINE1":"1 54773U 22175R   23016.83334491 -.00969827  00000-0 -18463-1 0  9996","ELEMENT_SET_NO":"999","TIME_SYSTEM":"UTC","OBJECT_TYPE":"PAYLOAD","DECAY_DATE":null,"BSTAR":"-0.01846300000000"},{"CLASSIFICATION_TYPE":"U","REV_AT_EPOCH":"661","ECCENTRICITY":"0.00022070","OBJECT_ID":"2022-175S","PERIAPSIS":"348.421","OBJECT_NAME":"STARLINK-5454","EPOCH":"2023-01-16T18:31:46.777152","MEAN_ANOMALY":"296.6702","TLE_LINE1":"1 54774U 22175S   23016.77206918 -.00006317  00000-0 -40699-4 0  9997","MEAN_MOTION_DOT":"-0.00006317","ELEMENT_SET_NO":"999","TIME_SYSTEM":"UTC","DECAY_DATE":null,"OBJECT_TYPE":"PAYLOAD","BSTAR":"-0.00004069900000","RA_OF_ASC_NODE":"157.8817","MEAN_ELEMENT_THEORY":"SGP4","PERIOD":"91.536","TLE_LINE2":"2 54774  53.2167 157.8817 0002207  63.4544 296.6702 15.73148866  6611","MEAN_MOTION_DDOT":"0.0000000000000","ARG_OF_PERICENTER":"63.4544","INCLINATION":"53.2167","COUNTRY_CODE":"US","GP_ID":"223255329","FILE":"3750956","LAUNCH_DATE":"2022-12-17","APOAPSIS":"351.391","SEMIMAJOR_AXIS":"6728.041","SITE":"AFETR","RCS_SIZE":"LARGE","MEAN_MOTION":"15.73148866","NORAD_CAT_ID":"54774","CENTER_NAME":"EARTH","REF_FRAME":"TEME","EPHEMERIS_TYPE":"0"},{"PERIOD":"92.898","MEAN_ELEMENT_THEORY":"SGP4","RA_OF_ASC_NODE":"159.2702","TLE_LINE2":"2 54775  53.2142 159.2702 0000641  72.6440 157.6044 15.50091215  1307","INCLINATION":"53.2142","MEAN_MOTION_DDOT":"0.0000000000000","ARG_OF_PERICENTER":"72.6440","LAUNCH_DATE":"2022-12-17","FILE":"3750956","GP_ID":"223254608","COUNTRY_CODE":"US","SEMIMAJOR_AXIS":"6794.597","APOAPSIS":"416.897","RCS_SIZE":"LARGE","SITE":"AFETR","NORAD_CAT_ID":"54775","MEAN_MOTION":"15.50091215","REF_FRAME":"TEME","CENTER_NAME":"EARTH","EPHEMERIS_TYPE":"0","CLASSIFICATION_TYPE":"U","REV_AT_EPOCH":"130","ECCENTRICITY":"0.00006410","OBJECT_ID":"2022-175T","PERIAPSIS":"416.026","MEAN_ANOMALY":"157.6044","EPOCH":"2023-01-16T20:00:01.000224","OBJECT_NAME":"STARLINK-5465","ELEMENT_SET_NO":"999","TLE_LINE1":"1 54775U 22175T   23016.83334491 -.00546061  00000-0 -10227-1 0  9999","MEAN_MOTION_DOT":"-0.00546061","DECAY_DATE":null,"OBJECT_TYPE":"PAYLOAD","TIME_SYSTEM":"UTC","BSTAR":"-0.01022700000000"},{"ARG_OF_PERICENTER":"73.8631","TLE_LINE2":"2 54776  53.2141 158.8637 0001393  73.8631 265.7194 15.49877181  4457","MEAN_MOTION_DDOT":"0.0000000000000","INCLINATION":"53.2141","PERIOD":"92.911","MEAN_ELEMENT_THEORY":"SGP4","RA_OF_ASC_NODE":"158.8637","SEMIMAJOR_AXIS":"6795.222","APOAPSIS":"418.034","LAUNCH_DATE":"2022-12-17","FILE":"3749765","GP_ID":"223204484","COUNTRY_CODE":"US","NORAD_CAT_ID":"54776","MEAN_MOTION":"15.49877181","RCS_SIZE":"MEDIUM","SITE":"AFETR","EPHEMERIS_TYPE":"0","REF_FRAME":"TEME","CENTER_NAME":"EARTH","REV_AT_EPOCH":"445","ECCENTRICITY":"0.00013930","CLASSIFICATION_TYPE":"U","EPOCH":"2023-01-16T22:00:00.999936","MEAN_ANOMALY":"265.7194","OBJECT_NAME":"STARLINK-5470","OBJECT_ID":"2022-175U","PERIAPSIS":"416.140","ELEMENT_SET_NO":"999","TLE_LINE1":"1 54776U 22175U   23016.91667824  .00017949  00000-0  32355-3 0  9992","MEAN_MOTION_DOT":"0.00017949","BSTAR":"0.00032355000000","DECAY_DATE":null,"OBJECT_TYPE":"PAYLOAD","TIME_SYSTEM":"UTC"},{"CENTER_NAME":"EARTH","REF_FRAME":"TEME","EPHEMERIS_TYPE":"0","SITE":"AFETR","RCS_SIZE":"LARGE","MEAN_MOTION":"15.49863420","NORAD_CAT_ID":"54777","COUNTRY_CODE":"US","FILE":"3750956","GP_ID":"223255088","LAUNCH_DATE":"2022-12-17","APOAPSIS":"417.782","SEMIMAJOR_AXIS":"6795.262","RA_OF_ASC_NODE":"159.2659","MEAN_ELEMENT_THEORY":"SGP4","PERIOD":"92.911","MEAN_MOTION_DDOT":"0.0000000000000","TLE_LINE2":"2 54777  53.2144 159.2659 0000964  71.9390 160.0948 15.49863420  1300","ARG_OF_PERICENTER":"71.9390","INCLINATION":"53.2144","TIME_SYSTEM":"UTC","DECAY_DATE":null,"OBJECT_TYPE":"PAYLOAD","BSTAR":"0.00072543000000","MEAN_MOTION_DOT":"0.00040904","TLE_LINE1":"1 54777U 22175V   23016.83334491  .00040904  00000-0  72543-3 0  9995","ELEMENT_SET_NO":"999","OBJECT_ID":"2022-175V","PERIAPSIS":"416.472","OBJECT_NAME":"STARLINK-5468","EPOCH":"2023-01-16T20:00:01.000224","MEAN_ANOMALY":"160.0948","CLASSIFICATION_TYPE":"U","ECCENTRICITY":"0.00009640","REV_AT_EPOCH":"130"},{"RCS_SIZE":"LARGE","SITE":"AFETR","NORAD_CAT_ID":"54778","MEAN_MOTION":"15.73187089","CENTER_NAME":"EARTH","REF_FRAME":"TEME","EPHEMERIS_TYPE":"0","PERIOD":"91.534","RA_OF_ASC_NODE":"159.1389","MEAN_ELEMENT_THEORY":"SGP4","MEAN_MOTION_DDOT":"0.0000000000000","TLE_LINE2":"2 54778  53.2147 159.1389 0001203  98.5206 261.5951 15.73187089  4414","ARG_OF_PERICENTER":"98.5206","INCLINATION":"53.2147","LAUNCH_DATE":"2022-12-17","COUNTRY_CODE":"US","FILE":"3749799","GP_ID":"223205165","APOAPSIS":"350.606","SEMIMAJOR_AXIS":"6727.932","MEAN_MOTION_DOT":"-0.00004114","TLE_LINE1":"1 54778U 22175W   23016.51749721 -.00004114  00000-0 -24925-4 0  9994","ELEMENT_SET_NO":"999","DECAY_DATE":null,"OBJECT_TYPE":"PAYLOAD","TIME_SYSTEM":"UTC","BSTAR":"-0.00002492500000","CLASSIFICATION_TYPE":"U","ECCENTRICITY":"0.00012030","REV_AT_EPOCH":"441","OBJECT_ID":"2022-175W","PERIAPSIS":"348.988","OBJECT_NAME":"STARLINK-5450","MEAN_ANOMALY":"261.5951","EPOCH":"2023-01-16T12:25:11.758944"},{"INCLINATION":"53.2163","TLE_LINE2":"2 54779  53.2163 157.2505 0001172  82.3217 277.7936 15.73184294  6633","MEAN_MOTION_DDOT":"0.0000000000000","ARG_OF_PERICENTER":"82.3217","PERIOD":"91.534","RA_OF_ASC_NODE":"157.2505","MEAN_ELEMENT_THEORY":"SGP4","APOAPSIS":"350.593","SEMIMAJOR_AXIS":"6727.940","LAUNCH_DATE":"2022-12-17","COUNTRY_CODE":"US","GP_ID":"223254119","FILE":"3750956","NORAD_CAT_ID":"54779","MEAN_MOTION":"15.73184294","RCS_SIZE":"LARGE","SITE":"AFETR","EPHEMERIS_TYPE":"0","CENTER_NAME":"EARTH","REF_FRAME":"TEME","ECCENTRICITY":"0.00011720","REV_AT_EPOCH":"663","CLASSIFICATION_TYPE":"U","OBJECT_NAME":"STARLINK-5447","MEAN_ANOMALY":"277.7936","EPOCH":"2023-01-16T21:34:22.759392","PERIAPSIS":"349.016","OBJECT_ID":"2022-175X","MEAN_MOTION_DOT":"-0.00004622","TLE_LINE1":"1 54779U 22175X   23016.89887453 -.00004622  00000-0 -28553-4 0  9996","ELEMENT_SET_NO":"999","BSTAR":"-0.00002855300000","OBJECT_TYPE":"PAYLOAD","DECAY_DATE":null,"TIME_SYSTEM":"UTC"},{"BSTAR":"-0.00000785150000","OBJECT_TYPE":"PAYLOAD","DECAY_DATE":null,"TIME_SYSTEM":"UTC","ELEMENT_SET_NO":"999","MEAN_MOTION_DOT":"-0.00001722","TLE_LINE1":"1 54780U 22175Y   23016.70670817 -.00001722  00000-0 -78515-5 0  9994","MEAN_ANOMALY":"288.7406","EPOCH":"2023-01-16T16:57:39.585888","OBJECT_NAME":"STARLINK-5449","OBJECT_ID":"2022-175Y","PERIAPSIS":"348.880","ECCENTRICITY":"0.00013120","REV_AT_EPOCH":"660","CLASSIFICATION_TYPE":"U","EPHEMERIS_TYPE":"0","REF_FRAME":"TEME","CENTER_NAME":"EARTH","NORAD_CAT_ID":"54780","MEAN_MOTION":"15.73199042","RCS_SIZE":"LARGE","SITE":"AFETR","SEMIMAJOR_AXIS":"6727.898","APOAPSIS":"350.646","LAUNCH_DATE":"2022-12-17","GP_ID":"223254361","FILE":"3750956","COUNTRY_CODE":"US","TLE_LINE2":"2 54780  53.2153 158.1831 0001312  71.3757 288.7406 15.73199042  6607","MEAN_MOTION_DDOT":"0.0000000000000","ARG_OF_PERICENTER":"71.3757","INCLINATION":"53.2153","PERIOD":"91.533","MEAN_ELEMENT_THEORY":"SGP4","RA_OF_ASC_NODE":"158.1831"},{"TLE_LINE2":"2 54781  53.2140 158.5081 0000755 129.0158 231.0930 15.73199533  6597","ARG_OF_PERICENTER":"129.0158","MEAN_MOTION_DDOT":"0.0000000000000","INCLINATION":"53.2140","PERIOD":"91.533","RA_OF_ASC_NODE":"158.5081","MEAN_ELEMENT_THEORY":"SGP4","APOAPSIS":"350.269","SEMIMAJOR_AXIS":"6727.897","LAUNCH_DATE":"2022-12-17","COUNTRY_CODE":"US","FILE":"3750956","GP_ID":"223255567","NORAD_CAT_ID":"54781","MEAN_MOTION":"15.73199533","RCS_SIZE":"LARGE","SITE":"AFETR","EPHEMERIS_TYPE":"0","CENTER_NAME":"EARTH","REF_FRAME":"TEME","ECCENTRICITY":"0.00007550","REV_AT_EPOCH":"659","CLASSIFICATION_TYPE":"U","OBJECT_NAME":"STARLINK-5443","MEAN_ANOMALY":"231.0930","EPOCH":"2023-01-16T15:28:17.613984","OBJECT_ID":"2022-175Z","PERIAPSIS":"349.254","MEAN_MOTION_DOT":"0.00000802","TLE_LINE1":"1 54781U 22175Z   23016.64464831  .00000802  00000-0  10126-4 0  9994","ELEMENT_SET_NO":"999","BSTAR":"0.00001012600000","OBJECT_TYPE":"PAYLOAD","DECAY_DATE":null,"TIME_SYSTEM":"UTC"}];
